ONEWEB-0697             
1 61603U 24188K   24300.91668981  .00021545  00000+0  21824-2 0  9991
2 61603  86.5090 167.7211 0001043 148.4628 273.7105 14.90832466  2226
ONEWEB-0698             
1 61604U 24188L   24300.91668981  .00019756  00000+0  19609-2 0  9991
2 61604  86.5104 167.7174 0004433 179.1834 262.4481 14.91645286  1984
ONEWEB-0699             
1 61605U 24188M   24300.91668981  .00019895  00000+0  20245-2 0  9994
2 61605  86.5119 167.7245 0000287 147.8495 270.1546 14.90654721  2081
ONEWEB-0700             
1 61606U 24188N   24300.91668981  .00021464  00000+0  21689-2 0  9993
2 61606  86.5094 167.7212 0001564 151.9387 272.7075 14.90930610  2138
ONEWEB-0701             
1 61607U 24188P   24300.91668981  .00020729  00000+0  20722-2 0  9994
2 61607  86.5121 167.7227 0003484 167.0350 267.9896 14.91360029  2271
ONEWEB-0702             
1 61608U 24188Q   24300.91668981  .00019677  00000+0  19544-2 0  9995
2 61608  86.5102 167.7169 0004286 178.1449 262.7696 14.91617959  2031
ONEWEB-0704             
1 61609U 24188R   24300.91668981  .00020031  00000+0  20356-2 0  9995
2 61609  86.5129 167.7251 0000484 146.7982 272.3653 14.90707688  2096
ONEWEB-0705             
1 61610U 24188S   24300.91668981  .00019530  00000+0  19502-2 0  9990
2 61610  86.5122 167.7231 0003628 168.7702 267.1663 14.91408368  2228
